{
  "norad_id": 65044,
  "name": "HULIANWANG DIGUI-41",
  "history": [
    {
      "epoch": "2026-04-10T11:54:39.924288Z",
      "apogee_km": 1149.9613488568348,
      "perigee_km": 1148.5778115273952,
      "latitude_deg": 6.2518653694737196e-06,
      "longitude_deg": 131.28975185857968,
      "height_km": 1150.3608573611593,
      "semi_major_axis_km": 7527.406580192115,
      "eccentricity": 9.19e-05,
      "inclination_deg": 49.9989,
      "raan_deg": 148.6854,
      "arg_perigee_deg": 212.2702,
      "mean_anomaly_deg": 147.8114,
      "mean_motion_rev_day": 13.29335799
    },
    {
      "epoch": "2026-04-11T20:23:18.113280Z",
      "apogee_km": 1149.9563680429028,
      "perigee_km": 1148.581863686145,
      "latitude_deg": 3.16358682162436e-05,
      "longitude_deg": -2.0569445514088995,
      "height_km": 1150.3214865771477,
      "semi_major_axis_km": 7527.406115864524,
      "eccentricity": 9.13e-05,
      "inclination_deg": 49.9988,
      "raan_deg": 143.8316,
      "arg_perigee_deg": 217.4012,
      "mean_anomaly_deg": 142.6797,
      "mean_motion_rev_day": 13.29335922
    },
    {
      "epoch": "2026-04-13T04:51:56.290176Z",
      "apogee_km": 1149.9569353240886,
      "perigee_km": 1148.5806244512942,
      "latitude_deg": 6.561641588203326e-05,
      "longitude_deg": -135.4038813473283,
      "height_km": 1150.281382087288,
      "semi_major_axis_km": 7527.405779887691,
      "eccentricity": 9.142e-05,
      "inclination_deg": 49.9987,
      "raan_deg": 138.9775,
      "arg_perigee_deg": 222.6516,
      "mean_anomaly_deg": 137.4286,
      "mean_motion_rev_day": 13.29336011
    },
    {
      "epoch": "2026-04-14T18:45:20.820672Z",
      "apogee_km": 1149.9482101514523,
      "perigee_km": 1148.5887607207824,
      "latitude_deg": -1.4759117499431158e-05,
      "longitude_deg": 9.024649739940866,
      "height_km": 1150.214649740063,
      "semi_major_axis_km": 7527.405485436117,
      "eccentricity": 9.03e-05,
      "inclination_deg": 49.9986,
      "raan_deg": 133.3144,
      "arg_perigee_deg": 229.7025,
      "mean_anomaly_deg": 130.3768,
      "mean_motion_rev_day": 13.29336089
    },
    {
      "epoch": "2026-04-15T20:00:57.168864Z",
      "apogee_km": 1149.946602735633,
      "perigee_km": 1148.5901642855251,
      "latitude_deg": 3.63920741586603e-05,
      "longitude_deg": -14.68955166619258,
      "height_km": 1150.1731781111753,
      "semi_major_axis_km": 7527.405383510579,
      "eccentricity": 9.01e-05,
      "inclination_deg": 49.9986,
      "raan_deg": 129.539,
      "arg_perigee_deg": 234.0458,
      "mean_anomaly_deg": 126.0331,
      "mean_motion_rev_day": 13.29336116
    },
    {
      "epoch": "2026-04-16T19:28:18.065280Z",
      "apogee_km": 1149.944219927178,
      "perigee_km": 1148.5922979426723,
      "latitude_deg": 4.383502193736328e-05,
      "longitude_deg": -10.995607650219506,
      "height_km": 1150.1393032578774,
      "semi_major_axis_km": 7527.405258934925,
      "eccentricity": 8.98e-05,
      "inclination_deg": 49.9987,
      "raan_deg": 126.0333,
      "arg_perigee_deg": 237.3767,
      "mean_anomaly_deg": 122.7019,
      "mean_motion_rev_day": 13.29336149
    },
    {
      "epoch": "2026-04-17T20:43:54.410016Z",
      "apogee_km": 1149.9378770977537,
      "perigee_km": 1148.5979990187798,
      "latitude_deg": -1.1878738358019115e-05,
      "longitude_deg": -34.7096844778545,
      "height_km": 1150.090507021853,
      "semi_major_axis_km": 7527.404938058266,
      "eccentricity": 8.9e-05,
      "inclination_deg": 49.9987,
      "raan_deg": 122.2581,
      "arg_perigee_deg": 241.8654,
      "mean_anomaly_deg": 118.2128,
      "mean_motion_rev_day": 13.29336234
    },
    {
      "epoch": "2026-04-18T20:11:15.292608Z",
      "apogee_km": 1149.9321812994795,
      "perigee_km": 1148.6028416627514,
      "latitude_deg": 8.026981131036638e-06,
      "longitude_deg": -31.015674015007175,
      "height_km": 1150.048200580866,
      "semi_major_axis_km": 7527.404511481115,
      "eccentricity": 8.83e-05,
      "inclination_deg": 49.9987,
      "raan_deg": 118.7524,
      "arg_perigee_deg": 245.6541,
      "mean_anomaly_deg": 114.4239,
      "mean_motion_rev_day": 13.29336347
    },
    {
      "epoch": "2026-04-19T19:38:36.170880Z",
      "apogee_km": 1149.9288796356905,
      "perigee_km": 1148.6055619736726,
      "latitude_deg": 9.261160102693815e-06,
      "longitude_deg": -27.321662272285646,
      "height_km": 1150.008295468528,
      "semi_major_axis_km": 7527.404220804681,
      "eccentricity": 8.79e-05,
      "inclination_deg": 49.9987,
      "raan_deg": 115.2467,
      "arg_perigee_deg": 249.2544,
      "mean_anomaly_deg": 110.8234,
      "mean_motion_rev_day": 13.29336424
    },
    {
      "epoch": "2026-04-20T11:52:55.238592Z",
      "apogee_km": 1149.9236399567899,
      "perigee_km": 1148.6104090506742,
      "latitude_deg": -1.7748485478001102e-05,
      "longitude_deg": 86.00496822152674,
      "height_km": 1149.9811623479834,
      "semi_major_axis_km": 7527.404024503731,
      "eccentricity": 8.723e-05,
      "inclination_deg": 49.9987,
      "raan_deg": 112.8197,
      "arg_perigee_deg": 251.5848,
      "mean_anomaly_deg": 108.4929,
      "mean_motion_rev_day": 13.29336476
    },
    {
      "epoch": "2026-04-21T18:33:17.918784Z",
      "apogee_km": 1149.9180316915126,
      "perigee_km": 1148.6157908148652,
      "latitude_deg": 2.530633801221267e-05,
      "longitude_deg": -19.933593756370854,
      "height_km": 1149.925472800808,
      "semi_major_axis_km": 7527.403911253188,
      "eccentricity": 8.65e-05,
      "inclination_deg": 49.9988,
      "raan_deg": 108.2353,
      "arg_perigee_deg": 256.5157,
      "mean_anomaly_deg": 103.5619,
      "mean_motion_rev_day": 13.29336506
    },
    {
      "epoch": "2026-04-22T18:00:38.796192Z",
      "apogee_km": 1149.911934261554,
      "perigee_km": 1148.6217372441051,
      "latitude_deg": -2.0384348924632704e-05,
      "longitude_deg": -16.23971896653903,
      "height_km": 1149.8827256530956,
      "semi_major_axis_km": 7527.403835752829,
      "eccentricity": 8.57e-05,
      "inclination_deg": 49.9989,
      "raan_deg": 104.7295,
      "arg_perigee_deg": 260.2601,
      "mean_anomaly_deg": 99.8174,
      "mean_motion_rev_day": 13.29336526
    },
    {
      "epoch": "2026-04-23T12:03:13.319136Z",
      "apogee_km": 1149.9071804383775,
      "perigee_km": 1148.6263174164596,
      "latitude_deg": -2.049075445066043e-05,
      "longitude_deg": 69.67873732694154,
      "height_km": 1149.8507841964886,
      "semi_major_axis_km": 7527.403748927418,
      "eccentricity": 8.508e-05,
      "inclination_deg": 49.9989,
      "raan_deg": 102.0328,
      "arg_perigee_deg": 263.0694,
      "mean_anomaly_deg": 97.0081,
      "mean_motion_rev_day": 13.29336549
    },
    {
      "epoch": "2026-04-24T18:43:36.000192Z",
      "apogee_km": 1149.9122339609503,
      "perigee_km": 1148.6205315404713,
      "latitude_deg": 1.1036040651865965e-05,
      "longitude_deg": -36.25993633254965,
      "height_km": 1149.8066796431117,
      "semi_major_axis_km": 7527.403382750711,
      "eccentricity": 8.58e-05,
      "inclination_deg": 49.9992,
      "raan_deg": 97.4483,
      "arg_perigee_deg": 267.0268,
      "mean_anomaly_deg": 93.0506,
      "mean_motion_rev_day": 13.29336646
    },
    {
      "epoch": "2026-04-25T19:59:12.941088Z",
      "apogee_km": 1149.893952448264,
      "perigee_km": 1148.752789456028,
      "latitude_deg": 4.263908898972157e-05,
      "longitude_deg": -59.97593266647199,
      "height_km": 1149.783921499427,
      "semi_major_axis_km": 7527.460370952145,
      "eccentricity": 7.58e-05,
      "inclination_deg": 49.9992,
      "raan_deg": 93.6736,
      "arg_perigee_deg": 274.6382,
      "mean_anomaly_deg": 85.4404,
      "mean_motion_rev_day": 13.2932155
    },
    {
      "epoch": "2026-04-26T23:03:05.815008Z",
      "apogee_km": 1149.896515094324,
      "perigee_km": 1148.7499323530456,
      "latitude_deg": 6.242985317418085e-05,
      "longitude_deg": -111.10313082877344,
      "height_km": 1149.7726446737788,
      "semi_major_axis_km": 7527.460223723684,
      "eccentricity": 7.616e-05,
      "inclination_deg": 49.9996,
      "raan_deg": 89.6282,
      "arg_perigee_deg": 275.7372,
      "mean_anomaly_deg": 84.3414,
      "mean_motion_rev_day": 13.29321589
    },
    {
      "epoch": "2026-04-27T20:42:12.121920Z",
      "apogee_km": 1149.8888998691646,
      "perigee_km": 1148.7567699099973,
      "latitude_deg": -4.042207790192655e-06,
      "longitude_deg": -80.00457024607327,
      "height_km": 1149.7352697022347,
      "semi_major_axis_km": 7527.459834889581,
      "eccentricity": 7.52e-05,
      "inclination_deg": 49.9998,
      "raan_deg": 86.3923,
      "arg_perigee_deg": 279.5904,
      "mean_anomaly_deg": 80.4883,
      "mean_motion_rev_day": 13.29321692
    }
  ]
}